{
    "satellites": [
        {
            "name": "starlink299",
            "title": "Starlink-299 (G17-10) (new)",
            "tle": [
                "1 70172C 25200Q   25258.94354167 -.00934620  00000+0 -26206-2 0  2588",
                "2 70172  97.6007 323.8154 0001297  61.7787  83.1962 15.94539300    18"
            ],
            "stdMag": 5,
            "noradId": "70172",
            "tleUrl": "http://celestrak.org/NORAD/elements/supplemental/sup-gp.php?FILE=starlink&FORMAT=tle",
            "launchDate": "2025-09-13T17:55:49.000Z",
            "active": true,
            "batch": [
                {
                    "noradId": "70172",
                    "tle": [
                        "1 70172C 25200Q   25258.94354167 -.00934620  00000+0 -26206-2 0  2588",
                        "2 70172  97.6007 323.8154 0001297  61.7787  83.1962 15.94539300    18"
                    ]
                }
            ]
        },
        {
            "name": "starlink298",
            "title": "Starlink-298 (G17-9)",
            "tle": [
                "1 70181C 25200Z   25258.93659722 -.01004200  00000+0 -27538-2 0  2584",
                "2 70181  97.5996 323.8186 0001581  60.2785  69.3063 15.95034178    19"
            ],
            "stdMag": 5,
            "noradId": "70181",
            "tleUrl": "http://celestrak.org/NORAD/elements/supplemental/sup-gp.php?FILE=starlink&FORMAT=tle",
            "launchDate": "2025-09-06T18:06:39.000Z",
            "active": true,
            "batch": [
                {
                    "noradId": "70181",
                    "tle": [
                        "1 70181C 25200Z   25258.93659722 -.01004200  00000+0 -27538-2 0  2584",
                        "2 70181  97.5996 323.8186 0001581  60.2785  69.3063 15.95034178    19"
                    ]
                },
                {
                    "noradId": "70179",
                    "tle": [
                        "1 70179C 25200X   25258.94215278 -.00997980  00000+0 -27448-2 0  2581",
                        "2 70179  97.5999 323.8239 0001410  68.5055  90.4822 15.94972485    19"
                    ]
                },
                {
                    "noradId": "70180",
                    "tle": [
                        "1 70180C 25200Y   25258.93729167 -.00991170  00000+0 -27313-2 0  2585",
                        "2 70180  97.5999 323.8166 0001493  62.2666  65.9995 15.94928163    12"
                    ]
                },
                {
                    "noradId": "70178",
                    "tle": [
                        "1 70178C 25200W   25258.94145833 -.00981470  00000+0 -27130-2 0  2584",
                        "2 70178  97.5998 323.8201 0001398  69.2095  79.7753 15.94859619    19"
                    ]
                },
                {
                    "noradId": "70177",
                    "tle": [
                        "1 70177C 25200V   25258.94145833 -.00975540  00000+0 -27030-2 0  2583",
                        "2 70177  97.6001 323.8187 0001480  67.3287  78.7515 15.94807719    10"
                    ]
                },
                {
                    "noradId": "70176",
                    "tle": [
                        "1 70176C 25200U   25258.94215278 -.00969440  00000+0 -26924-2 0  2586",
                        "2 70176  97.6000 323.8181 0001540  60.8956  86.6938 15.94757047    15"
                    ]
                },
                {
                    "noradId": "70175",
                    "tle": [
                        "1 70175C 25200T   25258.94145833 -.00963510  00000+0 -26817-2 0  2587",
                        "2 70175  97.6001 323.8163 0001442  63.1883  77.8879 15.94709476    10"
                    ]
                },
                {
                    "noradId": "70174",
                    "tle": [
                        "1 70174C 25200S   25258.94145833 -.00953470  00000+0 -26602-2 0  2582",
                        "2 70174  97.6001 323.8150 0001518  56.7750  81.5792 15.94653122    12"
                    ]
                },
                {
                    "noradId": "70173",
                    "tle": [
                        "1 70173C 25200R   25258.93520833 -.00942650  00000+0 -26349-2 0  2583",
                        "2 70173  97.6004 323.8069 0001406  61.3473  38.2064 15.94606219    19"
                    ]
                },
                {
                    "noradId": "70172",
                    "tle": [
                        "1 70172C 25200Q   25258.94354167 -.00934620  00000+0 -26206-2 0  2588",
                        "2 70172  97.6007 323.8154 0001297  61.7787  83.1962 15.94539300    18"
                    ]
                },
                {
                    "noradId": "70171",
                    "tle": [
                        "1 70171C 25200P   25258.94006944 -.00923520  00000+0 -25951-2 0  2587",
                        "2 70171  97.6007 323.8105 0001445  63.0158  59.1903 15.94485948    11"
                    ]
                },
                {
                    "noradId": "70170",
                    "tle": [
                        "1 70170C 25200N   25258.94354167 -.00893610  00000+0 -25243-2 0  2589",
                        "2 70170  97.6005 323.8118 0001472  62.6156  74.1099 15.94353668    11"
                    ]
                },
                {
                    "noradId": "70169",
                    "tle": [
                        "1 70169C 25200M   25258.93590278 -.00906270  00000+0 -25517-2 0  2582",
                        "2 70169  97.6011 323.8046 0001457  58.6058  37.0273 15.94429748    10"
                    ]
                },
                {
                    "noradId": "70167",
                    "tle": [
                        "1 70167C 25200K   25258.93659722 -.00860790  00000+0 -24433-2 0  2582",
                        "2 70167  97.6011 323.8019 0001317  61.7848  29.3433 15.94228141    11"
                    ]
                },
                {
                    "noradId": "70168",
                    "tle": [
                        "1 70168C 25200L   25258.94076389 -.00873990  00000+0 -24751-2 0  2585",
                        "2 70168  97.6008 323.8078 0001452  60.2284  57.6039 15.94284897    17"
                    ]
                },
                {
                    "noradId": "70166",
                    "tle": [
                        "1 70166C 25200J   25258.94076389 -.00847010  00000+0 -24115-2 0  2581",
                        "2 70166  97.6010 323.8053 0001422  59.4440  52.9195 15.94155301    10"
                    ]
                },
                {
                    "noradId": "70165",
                    "tle": [
                        "1 70165C 25200H   25258.93868056 -.00835700  00000+0 -23855-2 0  2582",
                        "2 70165  97.6011 323.8018 0001293  60.9533  36.6120 15.94094123    18"
                    ]
                },
                {
                    "noradId": "70164",
                    "tle": [
                        "1 70164C 25200G   25258.93868056 -.00828820  00000+0 -23711-2 0  2587",
                        "2 70164  97.6014 323.8012 0001336  58.6489  36.8397 15.94044012    16"
                    ]
                },
                {
                    "noradId": "70163",
                    "tle": [
                        "1 70163C 25200F   25258.93590278 -.00821170  00000+0 -23554-2 0  2580",
                        "2 70163  97.6012 323.7971 0001199  59.4254  17.3283 15.93986153    10"
                    ]
                },
                {
                    "noradId": "70162",
                    "tle": [
                        "1 70162C 25200E   25258.93520833 -.00814080  00000+0 -23418-2 0  2580",
                        "2 70162  97.6014 323.7950 0001315  60.7192   9.1504 15.93923668    11"
                    ]
                },
                {
                    "noradId": "70160",
                    "tle": [
                        "1 70160C 25200C   25258.94284722 -.00807980  00000+0 -23317-2 0  2582",
                        "2 70160  97.6014 323.8023 0001303  62.2749  48.8928 15.93855868    19"
                    ]
                },
                {
                    "noradId": "70161",
                    "tle": [
                        "1 70161C 25200D   25258.93659722 -.00803390  00000+0 -23229-2 0  2581",
                        "2 70161  97.6010 323.7942 0001299  60.6451  12.3300 15.93813846    11"
                    ]
                },
                {
                    "noradId": "70159",
                    "tle": [
                        "1 70159C 25200B   25258.94076389 -.00795480  00000+0 -23077-2 0  2582",
                        "2 70159  97.6016 323.7981 0001329  58.2613  35.5865 15.93741637    15"
                    ]
                },
                {
                    "noradId": "70158",
                    "tle": [
                        "1 70158C 25200A   25258.94076389 -.00792380  00000+0 -23031-2 0  2587",
                        "2 70158  97.6020 323.7979 0001342  58.1697  33.6448 15.93701354    10"
                    ]
                }
            ]
        }
    ],
    "config": {}
}